KUIPER-00125            
1 65954U 25228H   25353.40742168  .00022347  00000+0  62051-3 0  9992
2 65954  51.8793 348.2408 0006478  42.7726 317.3764 15.36793254 11442
KUIPER-00126            
1 65955U 25228J   25354.16667823 -.00053914  00000+0 -64395-2 0  9999
2 65955  51.9004 352.4010 0005764  64.3255 158.8892 14.83973730  2157
KUIPER-00127            
1 65956U 25228K   25354.16667823 -.00026244  00000+0 -21066-2 0  9994
2 65956  51.8960 349.9480 0006144  77.8484  77.3399 14.99383930  5903
KUIPER-00128            
1 65957U 25228L   25354.16667823 -.01058299  00000+0 -74287-1 0  9993
2 65957  51.8994 346.8112 0004151  69.3568  91.7129 15.07539500  5888
KUIPER-00129            
1 65958U 25228M   25354.16667823 -.01541331  00000+0 -65653-1 0  9995
2 65958  51.8826 344.9108 0005705  24.6008  67.8862 15.25517533  3985
KUIPER-00130            
1 65959U 25228N   25354.16667823 -.00030965  00000+0 -13275-2 0  9995
2 65959  51.8842 345.7769 0007369  53.4969 331.3313 15.22015959  4219
KUIPER-00134            
1 65960U 25228P   25354.14073354  .01579114  00000+0  37630-1 0  9998
2 65960  51.8776 344.9009 0011796 282.2829  77.6837 15.38205693 11550
KUIPER-00135            
1 65961U 25228Q   25354.16667823 -.01054687  00000+0 -56567-1 0  9996
2 65961  51.8955 346.0260 0007351  44.7508 173.3954 15.17547050  4648
