<?xml version="1.0" encoding="UTF-8"?>
<ndm xmlns:xsi="http://www.w3.org/2001/XMLSchema-instance" xsi:noNamespaceSchemaLocation="https://sanaregistry.org/r/ndmxml_unqualified/ndmxml-2.0.0-master-2.0.xsd">
<omm id="CCSDS_OMM_VERS" version="2.0">
<header><CREATION_DATE/><ORIGINATOR/></header><body><segment><metadata><OBJECT_NAME>KUIPER-00125</OBJECT_NAME><OBJECT_ID>2025-228H</OBJECT_ID><CENTER_NAME>EARTH</CENTER_NAME><REF_FRAME>TEME</REF_FRAME><TIME_SYSTEM>UTC</TIME_SYSTEM><MEAN_ELEMENT_THEORY>SGP4</MEAN_ELEMENT_THEORY></metadata><data><meanElements><EPOCH>2025-12-19T09:46:41.233152</EPOCH><MEAN_MOTION>15.36793254</MEAN_MOTION><ECCENTRICITY>.0006478</ECCENTRICITY><INCLINATION>51.8793</INCLINATION><RA_OF_ASC_NODE>348.2408</RA_OF_ASC_NODE><ARG_OF_PERICENTER>42.7726</ARG_OF_PERICENTER><MEAN_ANOMALY>317.3764</MEAN_ANOMALY></meanElements><tleParameters><EPHEMERIS_TYPE>0</EPHEMERIS_TYPE><CLASSIFICATION_TYPE>U</CLASSIFICATION_TYPE><NORAD_CAT_ID>65954</NORAD_CAT_ID><ELEMENT_SET_NO>999</ELEMENT_SET_NO><REV_AT_EPOCH>1144</REV_AT_EPOCH><BSTAR>.62051E-3</BSTAR><MEAN_MOTION_DOT>.22347E-3</MEAN_MOTION_DOT><MEAN_MOTION_DDOT>0</MEAN_MOTION_DDOT></tleParameters></data></segment></body></omm>
<omm id="CCSDS_OMM_VERS" version="2.0">
<header><CREATION_DATE/><ORIGINATOR/></header><body><segment><metadata><OBJECT_NAME>KUIPER-00126</OBJECT_NAME><OBJECT_ID>2025-228J</OBJECT_ID><CENTER_NAME>EARTH</CENTER_NAME><REF_FRAME>TEME</REF_FRAME><TIME_SYSTEM>UTC</TIME_SYSTEM><MEAN_ELEMENT_THEORY>SGP4</MEAN_ELEMENT_THEORY></metadata><data><meanElements><EPOCH>2025-12-20T04:00:00.999072</EPOCH><MEAN_MOTION>14.83973730</MEAN_MOTION><ECCENTRICITY>.0005764</ECCENTRICITY><INCLINATION>51.9004</INCLINATION><RA_OF_ASC_NODE>352.4010</RA_OF_ASC_NODE><ARG_OF_PERICENTER>64.3255</ARG_OF_PERICENTER><MEAN_ANOMALY>158.8892</MEAN_ANOMALY></meanElements><tleParameters><EPHEMERIS_TYPE>0</EPHEMERIS_TYPE><CLASSIFICATION_TYPE>U</CLASSIFICATION_TYPE><NORAD_CAT_ID>65955</NORAD_CAT_ID><ELEMENT_SET_NO>999</ELEMENT_SET_NO><REV_AT_EPOCH>215</REV_AT_EPOCH><BSTAR>-.64395E-2</BSTAR><MEAN_MOTION_DOT>-.53914E-3</MEAN_MOTION_DOT><MEAN_MOTION_DDOT>0</MEAN_MOTION_DDOT></tleParameters></data></segment></body></omm>
<omm id="CCSDS_OMM_VERS" version="2.0">
<header><CREATION_DATE/><ORIGINATOR/></header><body><segment><metadata><OBJECT_NAME>KUIPER-00127</OBJECT_NAME><OBJECT_ID>2025-228K</OBJECT_ID><CENTER_NAME>EARTH</CENTER_NAME><REF_FRAME>TEME</REF_FRAME><TIME_SYSTEM>UTC</TIME_SYSTEM><MEAN_ELEMENT_THEORY>SGP4</MEAN_ELEMENT_THEORY></metadata><data><meanElements><EPOCH>2025-12-20T04:00:00.999072</EPOCH><MEAN_MOTION>14.99383930</MEAN_MOTION><ECCENTRICITY>.0006144</ECCENTRICITY><INCLINATION>51.8960</INCLINATION><RA_OF_ASC_NODE>349.9480</RA_OF_ASC_NODE><ARG_OF_PERICENTER>77.8484</ARG_OF_PERICENTER><MEAN_ANOMALY>77.3399</MEAN_ANOMALY></meanElements><tleParameters><EPHEMERIS_TYPE>0</EPHEMERIS_TYPE><CLASSIFICATION_TYPE>U</CLASSIFICATION_TYPE><NORAD_CAT_ID>65956</NORAD_CAT_ID><ELEMENT_SET_NO>999</ELEMENT_SET_NO><REV_AT_EPOCH>590</REV_AT_EPOCH><BSTAR>-.21066E-2</BSTAR><MEAN_MOTION_DOT>-.26244E-3</MEAN_MOTION_DOT><MEAN_MOTION_DDOT>0</MEAN_MOTION_DDOT></tleParameters></data></segment></body></omm>
<omm id="CCSDS_OMM_VERS" version="2.0">
<header><CREATION_DATE/><ORIGINATOR/></header><body><segment><metadata><OBJECT_NAME>KUIPER-00128</OBJECT_NAME><OBJECT_ID>2025-228L</OBJECT_ID><CENTER_NAME>EARTH</CENTER_NAME><REF_FRAME>TEME</REF_FRAME><TIME_SYSTEM>UTC</TIME_SYSTEM><MEAN_ELEMENT_THEORY>SGP4</MEAN_ELEMENT_THEORY></metadata><data><meanElements><EPOCH>2025-12-20T04:00:00.999072</EPOCH><MEAN_MOTION>15.07539500</MEAN_MOTION><ECCENTRICITY>.0004151</ECCENTRICITY><INCLINATION>51.8994</INCLINATION><RA_OF_ASC_NODE>346.8112</RA_OF_ASC_NODE><ARG_OF_PERICENTER>69.3568</ARG_OF_PERICENTER><MEAN_ANOMALY>91.7129</MEAN_ANOMALY></meanElements><tleParameters><EPHEMERIS_TYPE>0</EPHEMERIS_TYPE><CLASSIFICATION_TYPE>U</CLASSIFICATION_TYPE><NORAD_CAT_ID>65957</NORAD_CAT_ID><ELEMENT_SET_NO>999</ELEMENT_SET_NO><REV_AT_EPOCH>588</REV_AT_EPOCH><BSTAR>-.74287E-1</BSTAR><MEAN_MOTION_DOT>-.1058299E-1</MEAN_MOTION_DOT><MEAN_MOTION_DDOT>0</MEAN_MOTION_DDOT></tleParameters></data></segment></body></omm>
<omm id="CCSDS_OMM_VERS" version="2.0">
<header><CREATION_DATE/><ORIGINATOR/></header><body><segment><metadata><OBJECT_NAME>KUIPER-00129</OBJECT_NAME><OBJECT_ID>2025-228M</OBJECT_ID><CENTER_NAME>EARTH</CENTER_NAME><REF_FRAME>TEME</REF_FRAME><TIME_SYSTEM>UTC</TIME_SYSTEM><MEAN_ELEMENT_THEORY>SGP4</MEAN_ELEMENT_THEORY></metadata><data><meanElements><EPOCH>2025-12-20T04:00:00.999072</EPOCH><MEAN_MOTION>15.25517533</MEAN_MOTION><ECCENTRICITY>.0005705</ECCENTRICITY><INCLINATION>51.8826</INCLINATION><RA_OF_ASC_NODE>344.9108</RA_OF_ASC_NODE><ARG_OF_PERICENTER>24.6008</ARG_OF_PERICENTER><MEAN_ANOMALY>67.8862</MEAN_ANOMALY></meanElements><tleParameters><EPHEMERIS_TYPE>0</EPHEMERIS_TYPE><CLASSIFICATION_TYPE>U</CLASSIFICATION_TYPE><NORAD_CAT_ID>65958</NORAD_CAT_ID><ELEMENT_SET_NO>999</ELEMENT_SET_NO><REV_AT_EPOCH>398</REV_AT_EPOCH><BSTAR>-.65653E-1</BSTAR><MEAN_MOTION_DOT>-.1541331E-1</MEAN_MOTION_DOT><MEAN_MOTION_DDOT>0</MEAN_MOTION_DDOT></tleParameters></data></segment></body></omm>
<omm id="CCSDS_OMM_VERS" version="2.0">
<header><CREATION_DATE/><ORIGINATOR/></header><body><segment><metadata><OBJECT_NAME>KUIPER-00130</OBJECT_NAME><OBJECT_ID>2025-228N</OBJECT_ID><CENTER_NAME>EARTH</CENTER_NAME><REF_FRAME>TEME</REF_FRAME><TIME_SYSTEM>UTC</TIME_SYSTEM><MEAN_ELEMENT_THEORY>SGP4</MEAN_ELEMENT_THEORY></metadata><data><meanElements><EPOCH>2025-12-20T04:00:00.999072</EPOCH><MEAN_MOTION>15.22015959</MEAN_MOTION><ECCENTRICITY>.0007369</ECCENTRICITY><INCLINATION>51.8842</INCLINATION><RA_OF_ASC_NODE>345.7769</RA_OF_ASC_NODE><ARG_OF_PERICENTER>53.4969</ARG_OF_PERICENTER><MEAN_ANOMALY>331.3313</MEAN_ANOMALY></meanElements><tleParameters><EPHEMERIS_TYPE>0</EPHEMERIS_TYPE><CLASSIFICATION_TYPE>U</CLASSIFICATION_TYPE><NORAD_CAT_ID>65959</NORAD_CAT_ID><ELEMENT_SET_NO>999</ELEMENT_SET_NO><REV_AT_EPOCH>421</REV_AT_EPOCH><BSTAR>-.13275E-2</BSTAR><MEAN_MOTION_DOT>-.30965E-3</MEAN_MOTION_DOT><MEAN_MOTION_DDOT>0</MEAN_MOTION_DDOT></tleParameters></data></segment></body></omm>
<omm id="CCSDS_OMM_VERS" version="2.0">
<header><CREATION_DATE/><ORIGINATOR/></header><body><segment><metadata><OBJECT_NAME>KUIPER-00134</OBJECT_NAME><OBJECT_ID>2025-228P</OBJECT_ID><CENTER_NAME>EARTH</CENTER_NAME><REF_FRAME>TEME</REF_FRAME><TIME_SYSTEM>UTC</TIME_SYSTEM><MEAN_ELEMENT_THEORY>SGP4</MEAN_ELEMENT_THEORY></metadata><data><meanElements><EPOCH>2025-12-20T03:22:39.377856</EPOCH><MEAN_MOTION>15.38205693</MEAN_MOTION><ECCENTRICITY>.0011796</ECCENTRICITY><INCLINATION>51.8776</INCLINATION><RA_OF_ASC_NODE>344.9009</RA_OF_ASC_NODE><ARG_OF_PERICENTER>282.2829</ARG_OF_PERICENTER><MEAN_ANOMALY>77.6837</MEAN_ANOMALY></meanElements><tleParameters><EPHEMERIS_TYPE>0</EPHEMERIS_TYPE><CLASSIFICATION_TYPE>U</CLASSIFICATION_TYPE><NORAD_CAT_ID>65960</NORAD_CAT_ID><ELEMENT_SET_NO>999</ELEMENT_SET_NO><REV_AT_EPOCH>1155</REV_AT_EPOCH><BSTAR>.3763E-1</BSTAR><MEAN_MOTION_DOT>.1579114E-1</MEAN_MOTION_DOT><MEAN_MOTION_DDOT>0</MEAN_MOTION_DDOT></tleParameters></data></segment></body></omm>
<omm id="CCSDS_OMM_VERS" version="2.0">
<header><CREATION_DATE/><ORIGINATOR/></header><body><segment><metadata><OBJECT_NAME>KUIPER-00135</OBJECT_NAME><OBJECT_ID>2025-228Q</OBJECT_ID><CENTER_NAME>EARTH</CENTER_NAME><REF_FRAME>TEME</REF_FRAME><TIME_SYSTEM>UTC</TIME_SYSTEM><MEAN_ELEMENT_THEORY>SGP4</MEAN_ELEMENT_THEORY></metadata><data><meanElements><EPOCH>2025-12-20T04:00:00.999072</EPOCH><MEAN_MOTION>15.17547050</MEAN_MOTION><ECCENTRICITY>.0007351</ECCENTRICITY><INCLINATION>51.8955</INCLINATION><RA_OF_ASC_NODE>346.0260</RA_OF_ASC_NODE><ARG_OF_PERICENTER>44.7508</ARG_OF_PERICENTER><MEAN_ANOMALY>173.3954</MEAN_ANOMALY></meanElements><tleParameters><EPHEMERIS_TYPE>0</EPHEMERIS_TYPE><CLASSIFICATION_TYPE>U</CLASSIFICATION_TYPE><NORAD_CAT_ID>65961</NORAD_CAT_ID><ELEMENT_SET_NO>999</ELEMENT_SET_NO><REV_AT_EPOCH>464</REV_AT_EPOCH><BSTAR>-.56567E-1</BSTAR><MEAN_MOTION_DOT>-.1054687E-1</MEAN_MOTION_DOT><MEAN_MOTION_DDOT>0</MEAN_MOTION_DDOT></tleParameters></data></segment></body></omm>

</ndm>
